"{\n    \"CCSDS_OMM_VERS\": \"2.0\",\n    \"COMMENT\": \"GENERATED VIA SPACE-TRACK.ORG API\",\n    \"CREATION_DATE\": \"2025-08-31T17:37:22\",\n    \"ORIGINATOR\": \"18 SPCS\",\n    \"OBJECT_NAME\": \"BD-17\",\n    \"OBJECT_ID\": \"2015-019A\",\n    \"CENTER_NAME\": \"EARTH\",\n    \"REF_FRAME\": \"TEME\",\n    \"TIME_SYSTEM\": \"UTC\",\n    \"MEAN_ELEMENT_THEORY\": \"SGP4\",\n    \"EPOCH\": \"2025-08-31T14:46:43.016160\",\n    \"MEAN_MOTION\": \"1.0026191346\",\n    \"ECCENTRICITY\": \"0.0041171939\",\n    \"INCLINATION\": \"49.743639\",\n    \"RA_OF_ASC_NODE\": \"298.95252\",\n    \"ARG_OF_PERICENTER\": \"195.8599\",\n    \"MEAN_ANOMALY\": \"160.41211\",\n    \"EPHEMERIS_TYPE\": \"0\",\n    \"CLASSIFICATION_TYPE\": \"U\",\n    \"NORAD_CAT_ID\": \"40549\",\n    \"ELEMENT_SET_NO\": \"999\",\n    \"REV_AT_EPOCH\": \"3816\",\n    \"BSTAR\": \"0\",\n    \"MEAN_MOTION_DOT\": \"-0.000001392739\",\n    \"MEAN_MOTION_DDOT\": \"0\",\n    \"TLE_LINE0\": \"0 BD-17\",\n    \"TLE_LINE1\": \"1 40549U 15019A   25243.61577565 -.00000139  00000-0  00000-0 0  9990\",\n    \"TLE_LINE2\": \"2 40549  49.7436 298.9525 0041172 195.8599 160.4121  1.00261913 38164\",\n    \"SEMIMAJOR_AXIS\": \"42167.500\",\n    \"PERIOD\": \"1436.238\",\n    \"APOAPSIS\": \"35962.976\",\n    \"PERIAPSIS\": \"35615.753\",\n    \"OBJECT_TYPE\": \"PAYLOAD\",\n    \"DECAYED\": \"0\"\n}"